YOTSUBA-KULOVER         
1 65941U 98067XN  26052.29482576  .00150125  00000+0  10013-2 0  9993
2 65941  51.6233 141.9079 0005557 341.7546  18.3253 15.74362167 20916
BOTAN                   
1 65942U 98067XP  26052.28668814  .00637479  18190-3  15340-2 0  9997
2 65942  51.6141 136.5127 0009870 359.4528   0.6467 15.95780667 20987
E-KAGAKU-1              
1 65943U 98067XQ  26052.23324247  .00151313  00000+0  10173-2 0  9996
2 65943  51.6261 142.2610 0005639 351.4881   8.6021 15.74172048 20906
HRC MONOBLOCK CAMERA    
1 66052U 98067XR  26051.28939709  .00037241  00000+0  45070-3 0  9995
2 66052  51.6293 153.2198 0002498  26.6751 333.4371 15.60302557 19677
HTV-X1                  
1 66174U 25241A   26052.24890538  .00011241  00000+0  21782-3 0  9993
2 66174  51.6322 153.6219 0008522 117.8535 242.3318 15.48178501   518
SZ-21 MODULE            
1 66515U 25246C   26051.04654385  .00031392  00000+0  28694-3 0  9990
2 66515  41.4757 311.8512 0001754 295.1642  64.9017 15.67142085 15305
SHENZHOU-22             
1 66645U 25272A   26052.13756225  .00024626  00000+0  29956-3 0  9994
2 66645  41.4672 308.8199 0004828 160.2979 199.8047 15.59957331267648
SOYUZ-MS 28             
1 66664U 25275A   26052.24890538  .00011241  00000+0  21782-3 0  9994
2 66664  51.6322 153.6219 0008522 117.8535 242.3318 15.48178501  1287
DUPLEX                  
1 66906U 98067XS  26050.85523141  .00031428  00000+0  46566-3 0  9996
2 66906  51.6297 158.5697 0001534  73.8689 286.2471 15.54966738 12359
ISS OBJECT XT           
1 66907U 98067XT  26052.25320855  .00125657  00000+0  12666-2 0  9991
2 66907  51.6267 149.1509 0003405 350.5744   9.5187 15.64469502 12607
ISS OBJECT XU           
1 66908U 98067XU  26051.29411471  .00093259  00000+0  95120-3 0  9999
2 66908  51.6268 153.9936 0003151 349.4129  10.6799 15.64310971 12458
SILVERSAT               
1 66909U 98067XV  26052.27778721  .00149558  00000+0  13901-2 0  9993
2 66909  51.6262 148.5627 0004259 348.1045  11.9850 15.66407869 12618
